NORAD_CAT_ID,OBJECT_NAME,OBJECT_TYPE,EPOCH,MEAN_MOTION,ECCENTRICITY,INCLINATION,RA_OF_ASC_NODE,ARG_OF_PERICENTER,MEAN_ANOMALY,BSTAR,MEAN_MOTION_DOT,MEAN_MOTION_DDOT,TLE_LINE0,TLE_LINE1,TLE_LINE2,SEMIMAJOR_AXIS,PERIOD,APOGEE,PERIGEE,DECAYED
52553.0,STARLINK-3858,PAYLOAD,2023-06-16 13:23:13,15.0885292,0.0001007,53.2177,285.4191,103.406,256.7044,0.00013493,1.861e-05,0.0,0 STARLINK-3858,1 52553U 22051W   23167.55779583  .00001861  00000-0  13493-3 0  9997,2 52553  53.2177 285.4191 0001007 103.4060 256.7044 15.08852920 60980,6917.841,95.437,540.403,539.009,0.0
52553.0,STARLINK-3858,PAYLOAD,2023-06-16 18:09:22,15.08855952,0.0001198,53.2179,284.5253,103.2537,256.8589,0.00018923,2.726e-05,0.0,0 STARLINK-3858,1 52553U 22051W   23167.75651147  .00002726  00000-0  18923-3 0  9998,2 52553  53.2179 284.5253 0001198 103.2537 256.8589 15.08855952 60948,6917.832,95.437,540.525,538.868,0.0
52553.0,STARLINK-3858,PAYLOAD,2023-06-17 00:30:56,15.08835208,0.0002021,53.2176,283.337,76.6661,283.4556,6.8775e-05,8.06e-06,0.0,0 STARLINK-3858,1 52553U 22051W   23168.02149146  .00000806  00000-0  68775-4 0  9998,2 52553  53.2176 283.3370 0002021  76.6661 283.4556 15.08835208 61054,6917.895,95.438,541.158,538.362,0.0
52553.0,STARLINK-3858,PAYLOAD,2023-06-17 10:03:17,15.08814148,0.0001239,53.2172,281.5535,81.9066,278.2067,-0.00015087,-2.686e-05,0.0,0 STARLINK-3858,1 52553U 22051W   23168.41895206 -.00002686  00000-0 -15087-3 0  9993,2 52553  53.2172 281.5535 0001239  81.9066 278.2067 15.08814148 61049,6917.959,95.439,540.682,538.967,0.0
52553.0,STARLINK-3858,PAYLOAD,2023-06-17 14:49:25,15.08815588,8.65e-05,53.2171,280.6616,78.8564,281.2525,-0.00030953,-5.207e-05,0.0,0 STARLINK-3858,1 52553U 22051W   23168.61766125 -.00005207  00000-0 -30953-3 0  9993,2 52553  53.2171 280.6616 0000865  78.8564 281.2525 15.08815588 61143,6917.955,95.439,540.418,539.222,0.0
52553.0,STARLINK-3858,PAYLOAD,2023-06-18 16:15:36,15.08836698,0.0001101,53.217,275.9044,76.2237,283.8877,4.2568e-05,3.9e-06,0.0,0 STARLINK-3858,1 52553U 22051W   23169.67750013  .00000390  00000-0  42568-4 0  9991,2 52553  53.2170 275.9044 0001101  76.2237 283.8877 15.08836698 61308,6917.89,95.438,540.517,538.994,0.0
52553.0,STARLINK-3858,PAYLOAD,2023-06-19 00:12:31,15.08846401,9.69e-05,53.2168,274.418,71.9127,288.1971,0.00012721,1.738e-05,0.0,0 STARLINK-3858,1 52553U 22051W   23170.00869637  .00001738  00000-0  12721-3 0  9997,2 52553  53.2168 274.4180 0000969  71.9127 288.1971 15.08846401 61352,6917.861,95.437,540.396,539.055,0.0
52553.0,STARLINK-3858,PAYLOAD,2023-06-19 12:55:36,15.08860197,0.0001077,53.2163,272.0391,64.367,295.7433,0.00078347,0.0001221,0.0,0 STARLINK-3858,1 52553U 22051W   23170.53861694  .00012210  00000-0  78347-3 0  9993,2 52553  53.2163 272.0391 0001077  64.3670 295.7433 15.08860197 61361,6917.819,95.436,540.429,538.939,0.0
52553.0,STARLINK-3858,PAYLOAD,2023-06-20 12:46:23,15.08844972,9.56e-05,53.2158,267.5789,80.1965,279.9135,-7.0389e-05,-1.408e-05,0.0,0 STARLINK-3858,1 52553U 22051W   23171.53221299 -.00001408  00000-0 -70389-4 0  9993,2 52553  53.2158 267.5789 0000956  80.1965 279.9135 15.08844972 61516,6917.865,95.437,540.392,539.069,0.0
52553.0,STARLINK-3858,PAYLOAD,2023-06-20 15:57:09,15.088537,0.0001028,53.2157,266.9841,72.7815,287.329,0.00019085,2.752e-05,0.0,0 STARLINK-3858,1 52553U 22051W   23171.66469101  .00002752  00000-0  19085-3 0  9999,2 52553  53.2157 266.9841 0001028  72.7815 287.3290 15.08853700 61603,6917.839,95.437,540.415,538.992,0.0
52553.0,STARLINK-3858,PAYLOAD,2023-06-20 23:54:05,15.08844281,0.0001105,53.2154,265.4959,76.2244,283.8871,8.1913e-05,1.016e-05,0.0,0 STARLINK-3858,1 52553U 22051W   23171.99589239  .00001016  00000-0  81913-4 0  9992,2 52553  53.2154 265.4959 0001105  76.2244 283.8871 15.08844281 61650,6917.867,95.437,540.497,538.968,0.0
52553.0,STARLINK-3858,PAYLOAD,2023-06-21 12:37:10,15.08846334,0.0001108,53.2159,263.1176,80.8078,279.3039,4.6364e-05,4.5e-06,0.0,0 STARLINK-3858,1 52553U 22051W   23172.52581209  .00000450  00000-0  46364-4 0  9993,2 52553  53.2159 263.1176 0001108  80.8078 279.3039 15.08846334 61668,6917.861,95.437,540.493,538.96,0.0
52553.0,STARLINK-3858,PAYLOAD,2023-06-22 09:17:11,15.08839595,0.0001148,53.2161,259.2522,84.5651,275.5472,0.00012546,1.709e-05,0.0,0 STARLINK-3858,1 52553U 22051W   23173.38693618  .00001709  00000-0  12546-3 0  9998,2 52553  53.2161 259.2522 0001148  84.5651 275.5472 15.08839595 61866,6917.882,95.438,540.541,538.952,0.0
52553.0,STARLINK-3858,PAYLOAD,2023-06-23 12:18:44,15.08850623,0.0001016,53.2157,254.1976,84.1564,275.9544,0.00024367,3.593e-05,0.0,0 STARLINK-3858,1 52553U 22051W   23174.51301006  .00003593  00000-0  24367-3 0  9998,2 52553  53.2157 254.1976 0001016  84.1564 275.9544 15.08850623 62030,6917.848,95.437,540.416,539.01,0.0
52553.0,STARLINK-3858,PAYLOAD,2023-06-24 08:58:45,15.08837034,0.0001125,53.2158,250.331,86.3097,273.8024,-2.7263e-05,-7.22e-06,0.0,0 STARLINK-3858,1 52553U 22051W   23175.37413640 -.00000722  00000-0 -27263-4 0  9993,2 52553  53.2158 250.3310 0001125  86.3097 273.8024 15.08837034 62162,6917.889,95.438,540.533,538.976,0.0
52553.0,STARLINK-3858,PAYLOAD,2023-06-25 12:00:18,15.08847787,0.0001121,53.2157,245.2771,82.4798,277.6322,0.00012745,1.742e-05,0.0,0 STARLINK-3858,1 52553U 22051W   23176.50021232  .00001742  00000-0  12745-3 0  9990,2 52553  53.2157 245.2771 0001121  82.4798 277.6322 15.08847787 62334,6917.857,95.437,540.497,538.946,0.0
52553.0,STARLINK-3858,PAYLOAD,2023-06-25 21:32:37,15.08841266,0.0001091,53.2161,243.4914,88.3715,271.7402,1.6829e-05,-2e-07,0.0,0 STARLINK-3858,1 52553U 22051W   23176.89765405 -.00000020  00000-0  16829-4 0  9996,2 52553  53.2161 243.4914 0001091  88.3715 271.7402 15.08841266 62394,6917.877,95.437,540.496,538.987,0.0
52553.0,STARLINK-3858,PAYLOAD,2023-06-26 10:15:42,15.08835924,0.0001211,53.2156,241.1136,90.7743,269.3388,8.1187e-05,1.004e-05,0.0,0 STARLINK-3858,1 52553U 22051W   23177.42758053  .00001004  00000-0  81187-4 0  9998,2 52553  53.2156 241.1136 0001211  90.7743 269.3388 15.08835924 62470,6917.893,95.438,540.596,538.92,0.0
52553.0,STARLINK-3858,PAYLOAD,2023-06-28 03:35:44,15.08838104,0.0001141,53.2163,233.3822,90.4387,269.6736,0.00014825,2.072e-05,0.0,0 STARLINK-3858,1 52553U 22051W   23179.14982207  .00002072  00000-0  14825-3 0  9999,2 52553  53.2163 233.3822 0001141  90.4387 269.6736 15.08838104 62738,6917.886,95.438,540.541,538.962,0.0
52553.0,STARLINK-3858,PAYLOAD,2023-06-28 09:57:15,15.08859741,0.000138,53.2165,232.1953,97.3876,262.7273,0.00028273,4.217e-05,0.0,0 STARLINK-3858,1 52553U 22051W   23179.41476321  .00004217  00000-0  28273-3 0  9999,2 52553  53.2165 232.1953 0001380  97.3876 262.7273 15.08859741 62770,6917.82,95.436,540.64,538.73,0.0
52553.0,STARLINK-3858,PAYLOAD,2023-06-28 21:04:59,15.08832362,0.0001587,53.2165,230.1119,79.5059,280.6112,2.0004e-05,3e-07,0.0,0 STARLINK-3858,1 52553U 22051W   23179.87846587  .00000030  00000-0  20004-4 0  9998,2 52553  53.2165 230.1119 0001587  79.5059 280.6112 15.08832362 62845,6917.904,95.438,540.867,538.671,0.0
52553.0,STARLINK-3858,PAYLOAD,2023-06-30 12:49:36,15.08853382,0.0001592,53.2161,222.6775,103.1645,256.9524,-0.00040205,-6.683e-05,0.0,0 STARLINK-3858,1 52553U 22051W   23181.53445391 -.00006683  00000-0 -40205-3 0  9998,2 52553  53.2161 222.6775 0001592 103.1645 256.9524 15.08853382 63092,6917.839,95.437,540.806,538.603,0.0
52553.0,STARLINK-3858,PAYLOAD,2023-07-01 09:29:38,15.08837334,0.0001194,53.2155,218.8113,74.6699,285.4425,0.00024202,3.566e-05,0.0,0 STARLINK-3858,1 52553U 22051W   23182.39558799  .00003566  00000-0  24202-3 0  9994,2 52553  53.2155 218.8113 0001194  74.6699 285.4425 15.08837334 63228,6917.889,95.438,540.58,538.928,0.0
52553.0,STARLINK-3858,PAYLOAD,2023-07-02 10:55:48,15.08841738,0.0001223,53.2154,214.0537,74.2509,285.8618,9.2413e-05,1.183e-05,0.0,0 STARLINK-3858,1 52553U 22051W   23183.45542628  .00001183  00000-0  92413-4 0  9999,2 52553  53.2154 214.0537 0001223  74.2509 285.8618 15.08841738 63382,6917.875,95.437,540.586,538.894,0.0
52553.0,STARLINK-3858,PAYLOAD,2023-07-03 13:57:22,15.0884232,0.0001182,53.2162,208.9979,74.0421,286.0702,9.003e-05,1.145e-05,0.0,0 STARLINK-3858,1 52553U 22051W   23184.58150803  .00001145  00000-0  90030-4 0  9995,2 52553  53.2162 208.9979 0001182  74.0421 286.0702 15.08842320 63552,6917.873,95.437,540.556,538.921,0.0
52553.0,STARLINK-3858,PAYLOAD,2023-07-04 18:34:18,15.08842413,0.0001186,53.2164,203.6453,77.5144,282.5981,7.6566e-05,9.31e-06,0.0,0 STARLINK-3858,1 52553U 22051W   23185.77382747  .00000931  00000-0  76566-4 0  9991,2 52553  53.2164 203.6453 0001186  77.5144 282.5981 15.08842413 63730,6917.873,95.437,540.558,538.918,0.0
52553.0,STARLINK-3858,PAYLOAD,2023-07-06 07:08:10,15.08840587,0.0001169,53.2162,196.8056,79.1587,280.9536,4.5693e-05,4.39e-06,0.0,0 STARLINK-3858,1 52553U 22051W   23187.29734923  .00000439  00000-0  45693-4 0  9997,2 52553  53.2162 196.8056 0001169  79.1587 280.9536 15.08840587 63963,6917.879,95.438,540.552,538.935,0.0
52553.0,STARLINK-3858,PAYLOAD,2023-07-08 10:00:31,15.08838875,0.000121,53.2161,187.2902,80.0019,280.111,5.9057e-05,6.52e-06,0.0,0 STARLINK-3858,1 52553U 22051W   23189.41703027  .00000652  00000-0  59057-4 0  9990,2 52553  53.2161 187.2902 0001210  80.0019 280.1110 15.08838875 64287,6917.884,95.438,540.586,538.912,0.0
52553.0,STARLINK-3858,PAYLOAD,2023-07-10 03:20:33,15.08837579,0.0001209,53.2162,179.559,80.8217,279.2912,6.3169e-05,7.18e-06,0.0,0 STARLINK-3858,1 52553U 22051W   23191.13927317  .00000718  00000-0  63169-4 0  9994,2 52553  53.2162 179.5590 0001209  80.8217 279.2912 15.08837579 64549,6917.888,95.438,540.589,538.916,0.0
52553.0,STARLINK-3858,PAYLOAD,2023-07-11 07:57:29,15.08839908,0.0001279,53.2172,174.2076,87.7201,272.3937,7.7444e-05,9.45e-06,0.0,0 STARLINK-3858,1 52553U 22051W   23192.33159366  .00000945  00000-0  77444-4 0  9991,2 52553  53.2172 174.2076 0001279  87.7201 272.3937 15.08839908 64726,6917.881,95.438,540.63,538.861,0.0
